        "tle_line1": '1 59625U 24081A   26103.90217791  .00002447  00000+0  12834-3 0  9997',
        "tle_line2": '2 59625  97.5033 182.4365 0008748 237.6876 122.3511 15.16681453107790',
        "epoch_iso": '2026-04-13T21:39:08.171424Z',
        "inclination_deg": '97.503300',
        "eccentricity": '0.00087480',
        "mean_motion_rev_per_day": '15.16681453',
        "altitude_m": '515878.529',
    },
    {
        "name": 'LEGION 2',
        "norad_catalog_id": '59626',
        "tle_line1": '1 59626U 24081B   26103.93761077  .00002286  00000+0  11929-3 0  9997',
        "tle_line2": '2 59626  97.5032 182.5566 0010174 207.7918 152.2773 15.16909906107805',
        "epoch_iso": '2026-04-13T22:30:09.570528Z',
        "inclination_deg": '97.503200',
        "eccentricity": '0.00101740',
        "mean_motion_rev_per_day": '15.16909906',
        "altitude_m": '515186.333',
    },
    {
        "name": 'ALOS-4 (DAICHI-4)',
        "norad_catalog_id": '60182',
        "tle_line1": '1 60182U 24123A   26103.97492729  .00000974  00000+0  13728-3 0  9993',
        "tle_line2": '2 60182  97.9198 202.0621 0001592  99.3236 260.8156 14.79475843 96380',
        "epoch_iso": '2026-04-13T23:23:53.717856Z',
        "inclination_deg": '97.919800',
        "eccentricity": '0.00015920',
        "mean_motion_rev_per_day": '14.79475843',
        "altitude_m": '630979.132',
    },
    {
        "name": 'LEGION 3',
        "norad_catalog_id": '60452',
        "tle_line1": '1 60452U 24146A   26103.87440747  .00002395  00000+0  13897-3 0  9996',
        "tle_line2": '2 60452  45.0029  15.3377 0008835 161.0689 199.0519 15.15231369 92269',
        "epoch_iso": '2026-04-13T20:59:08.805408Z',
        "inclination_deg": '45.002900',
        "eccentricity": '0.00088350',
        "mean_motion_rev_per_day": '15.15231369',
        "altitude_m": '520276.233',
    },
    {
        "name": 'LEGION 4',
        "norad_catalog_id": '60453',
        "tle_line1": '1 60453U 24146B   26103.87303338  .00002711  00000+0  15412-3 0  9998',
        "tle_line2": '2 60453  45.0006 107.1994 0015264 310.3297  49.6248 15.15508157 91112',
        "epoch_iso": '2026-04-13T20:57:10.084032Z',
        "inclination_deg": '45.000600',
        "eccentricity": '0.00152640',
        "mean_motion_rev_per_day": '15.15508157',
        "altitude_m": '519436.270',
    },
    {
        "name": 'SENTINEL-2C',
        "norad_catalog_id": '60989',
        "tle_line1": '1 60989U 24157A   26103.90679551  .00000060  00000+0  39456-4 0  9991',
        "tle_line2": '2 60989  98.5642 179.6103 0001350 108.6675 251.4655 14.30813258 83797',
        "epoch_iso": '2026-04-13T21:45:47.132064Z',
        "inclination_deg": '98.564200',
        "eccentricity": '0.00013500',
        "mean_motion_rev_per_day": '14.30813258',
        "altitude_m": '789013.721',
    },
    {
        "name": 'IONOSFERA-M 1',
        "norad_catalog_id": '61735',
        "tle_line1": '1 61735U 24199A   26103.91561951  .00000007  00000+0  22738-4 0  9998',
        "tle_line2": '2 61735  98.7265 337.7373 0001102  29.8718 330.2523 14.22742231118560',
        "epoch_iso": '2026-04-13T21:58:29.525664Z',
        "inclination_deg": '98.726500',
        "eccentricity": '0.00011020',
        "mean_motion_rev_per_day": '14.22742231',
        "altitude_m": '816093.685',
    },
    {
        "name": 'IONOSFERA-M 2',
        "norad_catalog_id": '61736',
        "tle_line1": '1 61736U 24199B   26103.87972943 -.00000002  00000+0  18779-4 0  9997',
        "tle_line2": '2 61736  98.7264 337.6129 0001677 112.6500 247.4856 14.22745008121685',
        "epoch_iso": '2026-04-13T21:06:48.622752Z',
        "inclination_deg": '98.726400',
        "eccentricity": '0.00016770',
        "mean_motion_rev_per_day": '14.22745008',
        "altitude_m": '816084.323',
    },
    {
        "name": 'BIOMASS',
        "norad_catalog_id": '63772',
        "tle_line1": '1 63772U 25090A   26103.80306014  .00000709  00000+0  13343-3 0  9997',
        "tle_line2": '2 63772  98.0752 292.0533 0001336  98.3093 261.8263 14.67535417 51240',
        "epoch_iso": '2026-04-13T19:16:24.396096Z',
        "inclination_deg": '98.075200',
        "eccentricity": '0.00013360',
        "mean_motion_rev_per_day": '14.67535417',
        "altitude_m": '668946.983',
    },
    {
        "name": 'GOSAT-GW (IBUKI GW)',
        "norad_catalog_id": '64694',
        "tle_line1": '1 64694U 25141A   26103.96324803  .00000573  00000+0  10949-3 0  9999',
        "tle_line2": '2 64694  98.0538  42.3362 0001420  83.9326 276.2041 14.67558482 42426',
        "epoch_iso": '2026-04-13T23:07:04.629792Z',
        "inclination_deg": '98.053800',
        "eccentricity": '0.00014200',
        "mean_motion_rev_per_day": '14.67558482',
        "altitude_m": '668873.146',
    },
    {
        "name": 'IONOSFERA-M 3',
        "norad_catalog_id": '64876',
        "tle_line1": '1 64876U 25155A   26103.91025627  .00000029  00000+0  32737-4 0  9999',
        "tle_line2": '2 64876  98.5975  67.4530 0002339  64.0875 296.0544 14.21475089 37278',
        "epoch_iso": '2026-04-13T21:50:46.141728Z',
        "inclination_deg": '98.597500',
        "eccentricity": '0.00023390',
        "mean_motion_rev_per_day": '14.21475089',
        "altitude_m": '820368.473',
    },
    {
        "name": 'IONOSFERA-M 4',
        "norad_catalog_id": '64877',
        "tle_line1": '1 64877U 25155B   26103.94518913  .00000036  00000+0  35913-4 0  9995',
        "tle_line2": '2 64877  98.5974  67.4050 0001703  66.6200 293.5156 14.21477081 37274',
        "epoch_iso": '2026-04-13T22:41:04.340832Z',
        "inclination_deg": '98.597400',
        "eccentricity": '0.00017030',
        "mean_motion_rev_per_day": '14.21477081',
        "altitude_m": '820361.748',
    },
    {
        "name": 'MICROCARB',
        "norad_catalog_id": '64899',
        "tle_line1": '1 64899U 25156A   26103.92535796  .00000350  00000+0  63218-4 0  9994',
        "tle_line2": '2 64899  97.9845 182.2086 0017695 116.0916 244.2115 14.72257147 38515',
        "epoch_iso": '2026-04-13T22:12:30.927744Z',
        "inclination_deg": '97.984500',
        "eccentricity": '0.00176950',
        "mean_motion_rev_per_day": '14.72257147',
        "altitude_m": '653871.610',
    },
    {
        "name": 'CO3D 3',
        "norad_catalog_id": '64900',
        "tle_line1": '1 64900U 25156B   26103.87876813 -.00006232  00000+0 -28516-3 0  9997',
        "tle_line2": '2 64900  97.4333 183.4951 0001738  57.7786 302.3617 15.20183982 39766',
        "epoch_iso": '2026-04-13T21:05:25.566432Z',
        "inclination_deg": '97.433300',
        "eccentricity": '0.00017380',
        "mean_motion_rev_per_day": '15.20183982',
        "altitude_m": '505285.175',
    },
    {
        "name": 'CO3D 4',
        "norad_catalog_id": '64901',
        "tle_line1": '1 64901U 25156C   26103.94474976  .00002837  00000+0  13410-3 0  9992',
        "tle_line2": '2 64901  97.4327 183.5605 0001630 120.9647 239.1749 15.20209340 39778',
        "epoch_iso": '2026-04-13T22:40:26.379264Z',
        "inclination_deg": '97.432700',
        "eccentricity": '0.00016300',
        "mean_motion_rev_per_day": '15.20209340',
        "altitude_m": '505208.628',
    },
    {
        "name": 'CO3D 2',
        "norad_catalog_id": '64902',
        "tle_line1": '1 64902U 25156D   26103.97723363  .00002841  00000+0  13432-3 0  9992',
        "tle_line2": '2 64902  97.4328 183.4913 0001181  53.2351 306.8993 15.20194250 39778',
        "epoch_iso": '2026-04-13T23:27:12.985632Z',
        "inclination_deg": '97.432800',
        "eccentricity": '0.00011810',
        "mean_motion_rev_per_day": '15.20194250',
        "altitude_m": '505254.179',
    },
    {
        "name": 'CO3D 1',
        "norad_catalog_id": '64903',
        "tle_line1": '1 64903U 25156E   26103.64843334  .00003151  00000+0  12932-3 0  9997',
        "tle_line2": '2 64903  98.0928 182.3847 0110032   5.8142 354.4339 15.19681462 39725',
        "epoch_iso": '2026-04-13T15:33:44.640576Z',
        "inclination_deg": '98.092800',
        "eccentricity": '0.01100320',
        "mean_motion_rev_per_day": '15.19681462',
        "altitude_m": '506802.540',
    },
    {
        "name": 'SENTINEL-6B',
        "norad_catalog_id": '66514',
        "tle_line1": '1 66514U 25264A   26103.59512840 -.00000053  00000+0  33728-4 0  9992',
        "tle_line2": '2 66514  66.0402 269.3367 0007898 269.9989  90.0121 12.80930733 18897',
        "epoch_iso": '2026-04-13T14:16:59.093760Z',
        "inclination_deg": '66.040200',
        "eccentricity": '0.00078980',
        "mean_motion_rev_per_day": '12.80930733',
        "altitude_m": '1337730.199',
    },
    {
        "name": 'CSG-3',
        "norad_catalog_id": '67304',
        "tle_line1": '1 67304U 26001A   26103.79397558  .00000223  00000+0  34610-4 0  9998',
        "tle_line2": '2 67304  97.8885 288.3264 0001417  86.0487 274.0889 14.82147489 14928',
        "epoch_iso": '2026-04-13T19:03:19.490112Z',
        "inclination_deg": '97.888500',
        "eccentricity": '0.00014170',
        "mean_motion_rev_per_day": '14.82147489',
        "altitude_m": '622553.742',
    },
]

__all__ = ["CACHED_CELESTRAK_ROWS"]
